NORAD_CAT_ID,OBJECT_NAME,OBJECT_TYPE,EPOCH,MEAN_MOTION,ECCENTRICITY,INCLINATION,RA_OF_ASC_NODE,ARG_OF_PERICENTER,MEAN_ANOMALY,BSTAR,MEAN_MOTION_DOT,MEAN_MOTION_DDOT,TLE_LINE0,TLE_LINE1,TLE_LINE2,SEMIMAJOR_AXIS,PERIOD,APOGEE,PERIGEE,DECAYED
53421.0,STARLINK-4545,PAYLOAD,2023-12-30 13:35:33,15.08837444,0.0001396,53.2181,106.018,89.3762,270.739,0.0003764,5.707e-05,0.0,0 STARLINK-4545,1 53421U 22097AK  23364.56636179  .00005707  00000-0  37640-3 0  9998,2 53421  53.2181 106.0180 0001396  89.3762 270.7390 15.08837444 77834,6917.888,95.438,540.719,538.787,0.0
53421.0,STARLINK-4545,PAYLOAD,2023-12-31 13:26:21,15.08843179,0.0001329,53.217,101.5524,108.9074,251.2062,-5.5445e-05,-1.17e-05,0.0,0 STARLINK-4545,1 53421U 22097AK  23365.55996609 -.00001170  00000-0 -55445-4 0  9991,2 53421  53.2170 101.5524 0001329 108.9074 251.2062 15.08843179 77522,6917.871,95.437,540.655,538.816,0.0
53421.0,STARLINK-4545,PAYLOAD,2024-01-01 13:17:07,15.08848234,0.0001336,53.2172,97.0923,88.7808,271.3337,-1.9126e-05,-5.92e-06,0.0,0 STARLINK-4545,1 53421U 22097AK  24001.55356077 -.00000592  00000-0 -19126-4 0  9991,2 53421  53.2172  97.0923 0001336  88.7808 271.3337 15.08848234 78137,6917.855,95.437,540.644,538.796,0.0
53421.0,STARLINK-4545,PAYLOAD,2024-01-02 05:10:59,15.08834564,0.0001344,53.2173,94.1177,95.1852,264.9293,6.0976e-05,6.83e-06,0.0,0 STARLINK-4545,1 53421U 22097AK  24002.21596694  .00000683  00000-0  60976-4 0  9994,2 53421  53.2173  94.1177 0001344  95.1852 264.9293 15.08834564 77776,6917.897,95.438,540.692,538.832,0.0
53421.0,STARLINK-4545,PAYLOAD,2024-01-02 13:07:54,15.08841886,0.0001374,53.217,92.6319,94.4482,265.6667,0.00012476,1.698e-05,0.0,0 STARLINK-4545,1 53421U 22097AK  24002.54716135  .00001698  00000-0  12476-3 0  9992,2 53421  53.2170  92.6319 0001374  94.4482 265.6667 15.08841886 78283,6917.875,95.437,540.69,538.789,0.0
53421.0,STARLINK-4545,PAYLOAD,2024-01-03 11:23:19,15.08836536,0.0001395,53.2174,88.4673,106.0637,254.0509,-1.6028e-05,-5.43e-06,0.0,0 STARLINK-4545,1 53421U 22097AK  24003.47453061 -.00000543  00000-0 -16028-4 0  9999,2 53421  53.2174  88.4673 0001395 106.0637 254.0509 15.08836536 77965,6917.891,95.438,540.721,538.791,0.0
53421.0,STARLINK-4545,PAYLOAD,2024-01-03 12:58:42,15.08837051,0.0001643,53.2174,88.1708,94.3435,265.7745,-4.6114e-05,-1.022e-05,0.0,0 STARLINK-4545,1 53421U 22097AK  24003.54077195 -.00001022  00000-0 -46114-4 0  9999,2 53421  53.2174  88.1708 0001643  94.3435 265.7745 15.08837051 78439,6917.889,95.438,540.891,538.618,0.0
53421.0,STARLINK-4545,PAYLOAD,2024-01-04 11:14:05,15.08848571,0.0001313,53.217,84.0085,82.6751,277.439,6.1569e-05,6.92e-06,0.0,0 STARLINK-4545,1 53421U 22097AK  24004.46812286  .00000692  00000-0  61569-4 0  9990,2 53421  53.2170  84.0085 0001313  82.6751 277.4390 15.08848571 78113,6917.854,95.437,540.628,538.811,0.0
53421.0,STARLINK-4545,PAYLOAD,2024-01-04 12:49:28,15.08849214,0.000139,53.2174,83.7117,78.7518,281.363,9.5058e-05,1.226e-05,0.0,0 STARLINK-4545,1 53421U 22097AK  24004.53436177  .00001226  00000-0  95058-4 0  9993,2 53421  53.2174  83.7117 0001390  78.7518 281.3630 15.08849214 78588,6917.852,95.437,540.679,538.756,0.0
53421.0,STARLINK-4545,PAYLOAD,2024-01-04 23:57:11,15.0883817,0.0001702,53.2176,81.6366,66.5482,293.5689,0.00010707,1.416e-05,0.0,0 STARLINK-4545,1 53421U 22097AK  24004.99804983  .00001416  00000-0  10707-3 0  9995,2 53421  53.2176  81.6366 0001702  66.5482 293.5689 15.08838170 78190,6917.886,95.438,540.928,538.574,0.0
53421.0,STARLINK-4545,PAYLOAD,2024-01-05 11:04:54,15.08829075,0.0001614,53.217,79.552,59.558,300.5572,9.3357e-05,1.198e-05,0.0,0 STARLINK-4545,1 53421U 22097AK  24005.46173679  .00001198  00000-0  93357-4 0  9999,2 53421  53.2170  79.5520 0001614  59.5580 300.5572 15.08829075 78267,6917.914,95.438,540.895,538.662,0.0
53421.0,STARLINK-4545,PAYLOAD,2024-01-05 14:15:39,15.08837851,0.0001215,53.2155,78.9512,89.7294,270.3838,6.9836e-05,8.24e-06,0.0,0 STARLINK-4545,1 53421U 22097AK  24005.59420971  .00000824  00000-0  69836-4 0  9993,2 53421  53.2155  78.9512 0001215  89.7294 270.3838 15.08837851 78741,6917.887,95.438,540.592,538.911,0.0
53421.0,STARLINK-4545,PAYLOAD,2024-01-06 10:55:40,15.08847706,0.0001545,53.2173,75.0884,99.964,260.1526,9.4367e-06,-1.38e-06,0.0,0 STARLINK-4545,1 53421U 22097AK  24006.45532539 -.00000138  00000-0  94367-5 0  9990,2 53421  53.2173  75.0884 0001545  99.9640 260.1526 15.08847706 78870,6917.857,95.437,540.791,538.653,0.0
53421.0,STARLINK-4545,PAYLOAD,2024-01-06 14:06:26,15.08850057,0.0001551,53.2165,74.4927,97.1028,263.0141,2.5268e-05,1.14e-06,0.0,0 STARLINK-4545,1 53421U 22097AK  24006.58780308  .00000114  00000-0  25268-4 0  9999,2 53421  53.2165  74.4927 0001551  97.1028 263.0141 15.08850057 78439,6917.85,95.437,540.788,538.642,0.0
53421.0,STARLINK-4545,PAYLOAD,2024-01-07 04:24:54,15.08832986,0.0002948,53.2185,71.8104,149.9885,210.1276,4.9685e-05,5.02e-06,0.0,0 STARLINK-4545,1 53421U 22097AK  24007.18396948  .00000502  00000-0  49685-4 0  9999,2 53421  53.2185  71.8104 0002948 149.9885 210.1276 15.08832986 78520,6917.902,95.438,541.806,537.727,0.0
53421.0,STARLINK-4545,PAYLOAD,2024-01-07 10:46:27,15.08837016,0.0001637,53.2174,70.6283,105.461,254.6563,8.3221e-05,1.037e-05,0.0,0 STARLINK-4545,1 53421U 22097AK  24007.44893038  .00001037  00000-0  83221-4 0  9998,2 53421  53.2174  70.6283 0001637 105.4610 254.6563 15.08837016 79027,6917.89,95.438,540.887,538.622,0.0
53421.0,STARLINK-4545,PAYLOAD,2024-01-07 23:29:32,15.08838436,0.0001505,53.2171,68.248,111.7225,248.3927,5.8329e-05,6.4e-06,0.0,0 STARLINK-4545,1 53421U 22097AK  24007.97884977  .00000640  00000-0  58329-4 0  9998,2 53421  53.2171  68.2480 0001505 111.7225 248.3927 15.08838436 78640,6917.885,95.438,540.791,538.709,0.0
53421.0,STARLINK-4545,PAYLOAD,2024-01-08 09:01:51,15.08844269,0.0001607,53.217,66.4628,116.7439,243.3718,1.918e-05,1.7e-07,0.0,0 STARLINK-4545,1 53421U 22097AK  24008.37628731  .00000017  00000-0  19180-4 0  9997,2 53421  53.2170  66.4628 0001607 116.7439 243.3718 15.08844269 79160,6917.867,95.437,540.844,538.621,0.0
53421.0,STARLINK-4545,PAYLOAD,2024-01-09 08:52:38,15.08838052,0.0001597,53.2173,62.0054,98.9148,261.2025,5.859e-05,6.45e-06,0.0,0 STARLINK-4545,1 53421U 22097AK  24009.36989208  .00000645  00000-0  58590-4 0  9991,2 53421  53.2173  62.0054 0001597  98.9148 261.2025 15.08838052 78852,6917.886,95.438,540.856,538.647,0.0
53421.0,STARLINK-4545,PAYLOAD,2024-01-10 08:43:26,15.08834019,0.0001551,53.217,57.545,95.704,264.4129,-1.6276e-06,-3.14e-06,0.0,0 STARLINK-4545,1 53421U 22097AK  24010.36349810 -.00000314  00000-0 -16276-5 0  9993,2 53421  53.2170  57.5450 0001551  95.7040 264.4129 15.08834019 79001,6917.899,95.438,540.837,538.691,0.0
53421.0,STARLINK-4545,PAYLOAD,2024-01-11 02:12:40,15.08856576,0.0001355,53.2165,54.2718,93.0139,267.1008,-0.00017783,-3.118e-05,0.0,0 STARLINK-4545,1 53421U 22097AK  24011.09213090 -.00003118  00000-0 -17783-3 0  9991,2 53421  53.2165  54.2718 0001355  93.0139 267.1008 15.08856576 79118,6917.83,95.437,540.632,538.757,0.0
53421.0,STARLINK-4545,PAYLOAD,2024-01-11 10:09:35,15.08844639,0.0001485,53.2169,52.7862,90.0997,270.0165,0.00012497,1.702e-05,0.0,0 STARLINK-4545,1 53421U 22097AK  24011.42332986  .00001702  00000-0  12497-3 0  9996,2 53421  53.2169  52.7862 0001485  90.0997 270.0165 15.08844639 79628,6917.866,95.437,540.759,538.704,0.0
53421.0,STARLINK-4545,PAYLOAD,2024-01-11 22:52:41,15.08835358,0.0001504,53.2173,50.4077,86.6674,273.449,0.00011095,1.478e-05,0.0,0 STARLINK-4545,1 53421U 22097AK  24011.95325671  .00001478  00000-0  11095-3 0  9990,2 53421  53.2173  50.4077 0001504  86.6674 273.4490 15.08835358 79245,6917.895,95.438,540.8,538.719,0.0
53421.0,STARLINK-4545,PAYLOAD,2024-01-12 10:00:23,15.08838398,0.0001628,53.2178,48.3287,87.4743,272.6435,0.00011988,1.62e-05,0.0,0 STARLINK-4545,1 53421U 22097AK  24012.41693641  .00001620  00000-0  11988-3 0  9997,2 53421  53.2178  48.3287 0001628  87.4743 272.6435 15.08838398 79777,6917.885,95.438,540.877,538.624,0.0
53421.0,STARLINK-4545,PAYLOAD,2024-01-13 01:54:14,15.08840733,0.0001572,53.2173,45.3537,74.545,285.5716,3.2028e-05,2.22e-06,0.0,0 STARLINK-4545,1 53421U 22097AK  24013.07933839  .00000222  00000-0  32028-4 0  9992,2 53421  53.2173  45.3537 0001572  74.5450 285.5716 15.08840733 79419,6917.878,95.438,540.831,538.656,0.0
53421.0,STARLINK-4545,PAYLOAD,2024-01-13 08:15:47,15.08842975,0.0001615,53.2172,44.1642,73.2102,286.9068,4.7425e-05,4.67e-06,0.0,0 STARLINK-4545,1 53421U 22097AK  24013.34429646  .00000467  00000-0  47425-4 0  9996,2 53421  53.2172  44.1642 0001615  73.2102 286.9068 15.08842975 79910,6917.871,95.437,540.854,538.619,0.0
53421.0,STARLINK-4545,PAYLOAD,2024-01-14 04:55:48,15.08835744,0.0001829,53.2172,40.297,111.647,248.4717,4.7406e-05,4.66e-06,0.0,0 STARLINK-4545,1 53421U 22097AK  24014.20542061  .00000466  00000-0  47406-4 0  9997,2 53421  53.2172  40.2970 0001829 111.6470 248.4717 15.08835744 79586,6917.893,95.438,541.024,538.493,0.0
53421.0,STARLINK-4545,PAYLOAD,2024-01-14 11:17:20,15.08847959,0.0001482,53.2174,39.1088,97.216,262.9001,0.00012202,1.655e-05,0.0,0 STARLINK-4545,1 53421U 22097AK  24014.47037177  .00001655  00000-0  12202-3 0  9999,2 53421  53.2174  39.1088 0001482  97.2160 262.9001 15.08847959 79628,6917.856,95.437,540.746,538.696,0.0
53421.0,STARLINK-4545,PAYLOAD,2024-01-15 00:00:25,15.08832239,0.0001608,53.2177,36.7235,115.4391,244.6768,0.00015982,2.256e-05,0.0,0 STARLINK-4545,1 53421U 22097AK  24015.00029892  .00002256  00000-0  15982-3 0  9990,2 53421  53.2177  36.7235 0001608 115.4391 244.6768 15.08832239 79708,6917.904,95.438,540.882,538.657,0.0
53421.0,STARLINK-4545,PAYLOAD,2024-01-15 11:08:06,15.08851021,0.0001748,53.2172,34.644,112.6326,247.4851,0.00011922,1.61e-05,0.0,0 STARLINK-4545,1 53421U 22097AK  24015.46396907  .00001610  00000-0  11922-3 0  9997,2 53421  53.2172  34.6440 0001748 112.6326 247.4851 15.08851021 79771,6917.847,95.437,540.921,538.502,0.0
